1 20635U 90048A   90364.84914339 -.00049105  00000-0 -56366-3 0  3275
2 20635  51.6153  60.0019 0023756  62.6449 298.1600 15.61220046 33356
1 20635U          90364.84914339 -.00049105  00000+0  56366-3 0  3272
2 20635  51.6153  60.0019 0023756  62.6449 298.1600 15.61220046 33356
1 20635U 90048A   90365.61719652 -.00049451  00000-0 -56366-3 0  3287
2 20635  51.5938  56.1445 0028347  66.2203 294.4128 15.61242040 33479
1 20635U 90048A   91001.76919251  .00033685  00000-0  38515-3 0  3295
2 20635  51.6129  50.3159 0025871  71.2679 289.1672 15.61424062 33653
1 20635U 90048A   91001.76919252  .00033589      0+0  38515-3 0 32908
2 20635  51.6129  50.3159 0025871  71.2679 289.1672 15.61424062 33653
1 20635U 90048A   91002.92117762  .00033770  00000-0  38515-3 0  3308
2 20635  51.6115  44.5072 0025349  76.2592 284.1299 15.61505130 33832
1 20635U 90048A   91002.92117762  .00033673      0+0  38515-3 0 33100
2 20635  51.6115  44.5072 0025349  76.2591 284.1299 15.61505131 33832
1 20635U 90048A   91003.88112577  .00033905  00000-0  38515-3 0  3325
2 20635  51.6090  39.6674 0025881  78.5834 281.8334 15.61589216 33989
1 20635U          91003.88112578 0.00033905  00000+0  38515-3 0  3324
2 20635  51.6090  39.6674 0025881  78.5834 281.8334 15.61589216 33989
1 20635U 90048A   91004.71303444  .00022791      0+0  26139-3 0 33303
2 20635  51.6027  35.4719 0025047  82.0123 278.3471 15.61633321 34114
1 20635U 90048A   91004.71303445  .00022815  00000-0  26139-3 0  3332
2 20635  51.6027  35.4719 0025047  82.0123 278.3471 15.61633320 34113
1 20635U          91006.56875287 0.00013565  00000+0  15718-3 0  3347
2 20635  51.6108  26.1043 0025526  90.0299 270.4341 15.61769282 34403
1 20635U 90048A   91006.56875287  .00013565  00000-0  15718-3 0  3349
2 20635  51.6108  26.1043 0025526  90.0299 270.4341 15.61769282 34403
1 20635U 90048A   91007.78448152  .00013612  00000-0  15718-3 0  3355
2 20635  51.6127  19.9692 0026291  92.7922 267.6691 15.61836007 34592
1 20635U          91007.78448152 0.00013612  00000+0  15718-3 0  3353
2 20635  51.6127  19.9692 0026291  92.7922 267.6691 15.61836007 34592
1 20635U          91009.00016003 0.00068870  00000+0  76172-3 0  3364
2 20635  51.6071  13.8356 0025718  97.8519 262.7634 15.61963173 34780
1 20635U 90048A   91009.00016004  .00068870  00000-0  76172-3 0  3367
2 20635  51.6071  13.8356 0025718  97.8519 262.7634 15.61963173 34780
1 20635U 90048A   91009.95976597  .00057084  00000-0  63212-3 0  3370
2 20635  51.6084   8.9982 0025553 102.2009 258.0003 15.62016923 34934
1 20635U          91009.95976597 0.00057084  00000+0  63212-3 0  3378
2 20635  51.6084   8.9982 0025553 102.2009 258.0003 15.62016923 34934
1 20635U 90048A   91011.04736225  .00056891      0+0  63212-3 0 33800
2 20635  51.6070   3.4749 0025382 101.1227 259.1178 15.62090634 35106
1 20635U 90048A   91011.04736228  .00057240  00000-0  63212-3 0  3383
2 20635  51.6070   3.4749 0025382 101.1227 259.1178 15.62090633 35105
1 20635U 90048A   91011.30328096  .00056976      0+0  63212-3 0 33907
2 20635  51.6066   2.2044 0025213 109.2971 251.1074 15.62133631 35140
1 20635U 90048A   91011.30328099  .00057327  00000-0  63212-3 0  3392
2 20635  51.6066   2.2045 0025213 109.2972 251.1074 15.62133631 35142
1 20635U 90048A   91012.64662198  .00057455  00000-0  63212-3 0  3405
2 20635  51.6077 355.4317 0024670 111.8367 248.1841 15.62207816 35350
1 20635U 90048A   91012.64662199  .00057103      0+0  63212-3 0 34005
2 20635  51.6077 355.4317 0024670 111.8366 248.1841 15.62207817 35350
1 20635U 90048A   91013.92600247  .00057462      0+0  63212-3 0 34102
2 20635  51.6100 348.9665 0026681 116.1555 243.9823 15.62299478 35551
1 20635U 90048A   91013.92600250  .00057817  00000-0  63212-3 0  3411
2 20635  51.6100 348.9665 0026681 116.1556 243.9823 15.62299478 35552
1 20635U 90048A   91014.94944955  .00057523      0+0  63212-3 0 34201
2 20635  51.6114 343.7994 0025705 122.7310 237.4412 15.62359311 35715
1 20635U 90048A   91014.94944958  .00057879  00000-0  63212-3 0  3429
2 20635  51.6114 343.7995 0025705 122.7310 237.4412 15.62359310 35715
1 20635U 90048A   91015.65305304  .00024363  00000-0  27055-3 0  3432
2 20635  51.6083 340.2506 0025531 123.3430 236.8966 15.62377762 35827
1 20635U          91015.65305304 0.00024363  00000+0  27055-3 0  3430
2 20635  51.6083 340.2506 0025531 123.3430 236.8966 15.62377762 35827
1 20635U 90048A   91015.65305304  .00024363  00000-0  27055-3 0  3432
2 20635  51.6083 340.2506 0025531 123.3430 236.8966 15.62377762 35827
1 20635U 90048A   91015.65305305  .00024329      0+0  27055-3 0 34304
2 20635  51.6083 340.2505 0025531 123.3429 236.8966 15.62377762 35824
1 20635U 90048A   91017.06020456  .00024422  00000-0  27055-3 0  3448
2 20635  51.6111 333.1394 0025324 129.0372 231.3121 15.62448162 36044
1 20635U 90048A   91017.06020465  .00024389      0+0  27055-3 0 34409
2 20635  51.6111 333.1393 0025324 129.0371 231.3121 15.62448162 36042
1 20635U 90048A   91017.89165805  .00025228  00000-0  27900-3 0  3452
2 20635  51.6034 328.9336 0024713 132.4662 227.8241 15.62488770 36173
1 20635U 90048A   91017.89165806  .00025190      0+0  27900-3 0 34500
2 20635  51.6034 328.9335 0024713 132.4662 227.8241 15.62488771 36173
1 20635U 90048A   91018.21144685  .00029898  00000-0  32866-3 0  3467
2 20635  51.6164 327.3214 0025905 132.7333 227.5674 15.62502273 36225
1 20635U          91019.10683128 0.00030010  00000+0  32866-3 0  3473
2 20635  51.6140 322.8035 0026806 134.9358 225.3733 15.62561880 36368
1 20635U 90048A   91019.10683128  .00030010  00000-0  32866-3 0  3475
2 20635  51.6140 322.8035 0026806 134.9358 225.3733 15.62561880 36368
1 20635U 90048A   91020.00217959  .00028824  00000-0  31572-3 0  3485
2 20635  51.6115 318.2791 0025787 139.9789 220.3524 15.62620942 36502
1 20635U          91020.00217959 0.00028824  00000+0  31572-3 0  3483
2 20635  51.6115 318.2791 0025787 139.9789 220.3524 15.62620942 36502
1 20635U 90048A   91021.08932985  .00033491      0+0  36565-3 0 34900
2 20635  51.6115 312.7872 0025538 145.0314 215.2413 15.62694865282134
1 20635U 90048A   91021.08932992  .00033585  00000-0  36565-3 0  3493
2 20635  51.6115 312.7872 0025538 145.0315 215.2413 15.62694864282134
1 20635U 90048A   91021.79275713  .00033618  00000-0  36565-3 0  3501
2 20635  51.6089 309.2338 0025094 147.1027 213.1466 15.62736284 36788
1 20635U 90048A   91021.79275721  .00033524      0+0  36565-3 0 35005
2 20635  51.6089 309.2337 0025094 147.1026 213.1466 15.62736285 36787
1 20635U 90048A   91022.81589200  .00033755  00000-0  36565-3 0  3517
2 20635  51.6076 304.0636 0025815 151.0691 209.1956 15.62812219 36940
1 20635U 90048A   91022.81589208  .00033660      0+0  36565-3 0 35109
2 20635  51.6076 304.0636 0025815 151.0691 209.1956 15.62812220 36942
1 20635U 90048A   91023.77503032  .00029310  00000-0  31762-3 0  3529
2 20635  51.6086 299.2157 0025797 153.9846 206.2642 15.62881326 37098
1 20635U 90048A   91023.77503032  .00029250      0+0  31762-3 0 35201
2 20635  51.6086 299.2157 0025797 153.9846 206.2642 15.62881327 37099
1 20635U 90048A   91024.86200678  .00029307      0+0  31762-3 0 35306
2 20635  51.6144 293.7182 0025146 161.5073 198.7220 15.62949665 37262
1 20635U 90048A   91024.86200685  .00029367  00000-0  31762-3 0  3531
2 20635  51.6144 293.7182 0025146 161.5073 198.7219 15.62949665 37260
1 20635U 90048A   91025.88499681  .00029480  00000-0  31762-3 0  3547
2 20635  51.6099 288.5479 0025233 162.8709 197.4279 15.63043865 37425
1 20635U          91025.88499681 0.00029480  00000+0  31762-3 0  3545
2 20635  51.6099 288.5479 0025233 162.8709 197.4279 15.63043865 37425
1 20635U          91026.71611404 0.00029650  00000+0  31762-3 0  3557
2 20635  51.6145 284.3487 0026150 162.2385 198.0930 15.63156207 37553
1 20635U 90048A   91026.71611404  .00029650  00000-0  31762-3 0  3559
2 20635  51.6145 284.3487 0026150 162.2385 198.0930 15.63156207 37553
1 20635U 90048A   91027.93073218  .00029742  00000-0  31762-3 0  3562
2 20635  51.6062 278.2084 0025237 174.6086 185.6300 15.63266711 37742
1 20635U 90048A   91027.93073226  .00029680      0+0  31762-3 0 35601
2 20635  51.6062 278.2084 0025237 174.6086 185.6300 15.63266712 37743
1 20635U 90048A   91029.08134616  .00029942  00000-0  31762-3 0  3573
2 20635  51.6106 272.3815 0026488 176.1502 184.0944 15.63389781 37927
1 20635U          91029.08134616 0.00029942  00000+0  31762-3 0  3571
2 20635  51.6106 272.3815 0026488 176.1502 184.0944 15.63389781 37927
1 20635U 90048A   91029.08134625  .00029881      0+0  31762-3 0 35603
2 20635  51.6106 272.3814 0026488 176.1502 184.0944 15.63389782 37927
1 20635U 90048A   91029.91227705  .00054543  00000-0  57122-3 0  3581
2 20635  51.6086 268.1830 0025196 177.9590 182.1602 15.63469267 38058
1 20635U 90048A   91029.91227705  .00054239      0+0  57122-3 0 35802
2 20635  51.6086 268.1829 0025196 177.9589 182.1602 15.63469268 38055
1 20635U 90048A   91031.06273932  .00054856  00000-0  57122-3 0  3591
2 20635  51.6049 262.3691 0026000 183.9385 176.1194 15.63585144 38234
1 20635U          91031.06273932 0.00054856  00000+0  57122-3 0  3599
2 20635  51.6049 262.3691 0026000 183.9385 176.1194 15.63585144 38234
1 20635U 90048A   91031.06273941  .00054550      0+0  57122-3 0 35901
2 20635  51.6049 262.3690 0026000 183.9384 176.1194 15.63585144 38232
1 20635U 90048A   91031.89358103  .00064788  00000-0  67115-3 0  3606
2 20635  51.6050 258.1668 0024994 186.4351 173.6040 15.63680094 38360
1 20635U 90048A   91031.89358104  .00064343      0+0  67115-3 0 36003
2 20635  51.6050 258.1668 0024994 186.4350 173.6040 15.63680094 38369
1 20635U 90048A   91032.91608034  .00065094  00000-0  67115-3 0  3613
2 20635  51.6138 252.9846 0025036 190.1375 169.8752 15.63795487 38521
1 20635U          91032.91608034 0.00065094  00000+0  67115-3 0  3611
2 20635  51.6138 252.9846 0025036 190.1375 169.8752 15.63795487 38521
